ION SCV-017             
1 63230U 25052W   26068.71648816  .00006457  00000+0  24539-3 0  9998
2 63230  97.4016 324.7516 0023746  44.9875 315.3282 15.26881798 54851
STARLINK-35805          
1 66359U 25254M   26068.72649998  .00012473  00000+0  43263-3 0  9990
2 66359  53.1582 232.1143 0000824  81.1817 278.9277 15.30193213 20115
